0 IRIDIUM 33 DEB
1 33950U 97051BK  13282.05763882  .00005102  00000-0  16000-2 0  3831
2 33950 086.3900 129.7304 0023325 295.7308 217.8617 14.40291401243617
0 IRIDIUM 33 DEB
1 33950U 97051BK  13283.91665634  .00005517  00000-0  17299-2 0  3845
2 33950 086.3902 128.9444 0023187 289.4567 137.1638 14.40305804243887
0 IRIDIUM 33 DEB
1 33950U 97051BK  13286.48332256  .00004538  00000-0  14215-2 0  3860
2 33950 086.3896 127.8590 0022894 280.4699 126.2220 14.40327001244251
0 IRIDIUM 33 DEB
1 33950U 97051BK  13287.52207609  .00005226  00000-0  16378-2 0  3877
2 33950 086.3892 127.4197 0022789 276.8271 112.5820 14.40335189244401
0 IRIDIUM 33 DEB
1 33950U 97051BK  13289.06916584  .00006795  00000-0  21300-2 0  3881
2 33950 086.3886 126.7654 0022683 271.3833 214.9728 14.40355275244627
0 IRIDIUM 33 DEB
1 33950U 97051BK  13290.50934882  .00006648  00000-0  20833-2 0  3891
2 33950 086.3881 126.1563 0022615 266.3074 123.0907 14.40368953244830
0 IRIDIUM 33 DEB
1 33950U 97051BK  13291.55565193  .00005562  00000-0  17419-2 0  3904
2 33950 086.3881 125.7136 0022557 262.6037 148.7949 14.40379530244983
0 IRIDIUM 33 DEB
1 33950U 97051BK  13292.59994287  .00005470  00000-0  17125-2 0  3912
2 33950 086.3882 125.2719 0022491 258.9523 164.0579 14.40389703245132
0 IRIDIUM 33 DEB
1 33950U 97051BK  13293.85061465  .00006359  00000-0  19912-2 0  3929
2 33950 086.3885 124.7429 0022487 254.4768 169.6813 14.40399645245312
0 IRIDIUM 33 DEB
1 33950U 97051BK  13295.04411751  .00006376  00000-0  19962-2 0  3934
2 33950 086.3886 124.2378 0022502 250.3477 238.7457 14.40411239245485
